CTC2_L_00265016-03
1 10062U 26193DX  26075.70043981  .00000000  00000+0  00000-0 0  9991
2 10062  60.0000 180.0000 0000000   0.0000   0.0000 13.98210060    17
CTC2_L_00265016-04
1 10063U 26195BR  26075.70043981  .00000000  00000+0  00000-0 0  9994
2 10063  60.0000 180.0000 0000000   0.0000  90.0000 13.98210060    17
CTC2_L_00265017-01
1 10064U 22847YR  26075.70043981  .00000000  00000+0  00000-0 0  9995
2 10064  60.0000 192.0000 0000000   0.0000 192.0000 13.98210060    14
CTC2_L_00265017-02
1 10065U 26573ZT  26075.70043981  .00000000  00000+0  00000-0 0  9996
2 10065  60.0000 192.0000 0000000   0.0000 282.0000 13.98210060    15
CTC2_L_00265017-03
1 10066U 23124DP  26075.70043981  .00000000  00000+0  00000-0 0  9996
2 10066  60.0000 192.0000 0000000   0.0000  12.0000 13.98210060    17
CTC2_L_00265017-04
1 10067U 24992NX  26075.70043981  .00000000  00000+0  00000-0 0  9991
2 10067  60.0000 192.0000 0000000   0.0000 102.0000 13.98210060    18
CTC2_L_00265018-01
1 10068U 25968GZ  26075.70043981  .00000000  00000+0  00000-0 0  9996
2 10068  60.0000 204.0000 0000000   0.0000 204.0000 13.98210060    16
CTC2_L_00265018-02
1 10069U 23070IM  26075.70043981  .00000000  00000+0  00000-0 0  9999
2 10069  60.0000 204.0000 0000000   0.0000 294.0000 13.98210060    16
CTC2_L_00265018-03
1 10070U 22623SN  26075.70043981  .00000000  00000+0  00000-0 0  9994
2 10070  60.0000 204.0000 0000000   0.0000  24.0000 13.98210060    19
CTC2_L_00265018-04
1 10071U 24295GE  26075.70043981  .00000000  00000+0  00000-0 0  9992
2 10071  60.0000 204.0000 0000000   0.0000 114.0000 13.98210060    10
CTC2_L_00265019-01
1 10072U 23534PJ  26075.70043981  .00000000  00000+0  00000-0 0  9998
2 10072  60.0000 216.0000 0000000   0.0000 216.0000 13.98210060    17
CTC2_L_00265019-02
1 10073U 24822BW  26075.70043981  .00000000  00000+0  00000-0 0  9990
2 10073  60.0000 216.0000 0000000   0.0000 306.0000 13.98210060    18
CTC2_L_00265019-03
1 10074U 22149NN  26075.70043981  .00000000  00000+0  00000-0 0  9991
2 10074  60.0000 216.0000 0000000   0.0000  36.0000 13.98210060    19
CTC2_L_00265019-04
1 10075U 24653EW  26075.70043981  .00000000  00000+0  00000-0 0  9994
2 10075  60.0000 216.0000 0000000   0.0000 126.0000 13.98210060    10
CTC2_L_00265020-01
1 10076U 26130HB  26075.70043981  .00000000  00000+0  00000-0 0  9997
2 10076  60.0000 228.0000 0000000   0.0000 228.0000 13.98210060    17
CTC2_L_00265020-02
1 10077U 23331X   26075.70043981  .00000000  00000+0  00000-0 0  9998
2 10077  60.0000 228.0000 0000000   0.0000 318.0000 13.98210060    18
CTC2_L_00265020-03
1 10078U 24621CM  26075.70043981  .00000000  00000+0  00000-0 0  9992
2 10078  60.0000 228.0000 0000000   0.0000  48.0000 13.98210060    19
CTC2_L_00265020-04
1 10079U 25657XG  26075.70043981  .00000000  00000+0  00000-0 0  9993
2 10079  60.0000 228.0000 0000000   0.0000 138.0000 13.98210060    10
CTC2_L_00265021-01
1 10080U 23363LE  26075.70043981  .00000000  00000+0  00000-0 0  9997
2 10080  60.0000 240.0000 0000000   0.0000 240.0000 13.98210060    10
CTC2_L_00265021-02
1 10081U 23544DJ  26075.70043981  .00000000  00000+0  00000-0 0  9999
2 10081  60.0000 240.0000 0000000   0.0000 330.0000 13.98210060    11
CTC2_L_00265021-03
1 10082U 26064PI  26075.70043981  .00000000  00000+0  00000-0 0  9990
2 10082  60.0000 240.0000 0000000   0.0000  60.0000 13.98210060    12
CTC2_L_00265021-04
1 10083U 25208BV  26075.70043981  .00000000  00000+0  00000-0 0  9990
2 10083  60.0000 240.0000 0000000   0.0000 150.0000 13.98210060    13
CTC2_L_00265022-01
1 10084U 26756EF  26075.70043981  .00000000  00000+0  00000-0 0  9990
2 10084  60.0000 252.0000 0000000   0.0000 252.0000 13.98210060    10
CTC2_L_00265022-02
1 10085U 22850FA  26075.70043981  .00000000  00000+0  00000-0 0  9992
2 10085  60.0000 252.0000 0000000   0.0000 342.0000 13.98210060    11
CTC2_L_00265022-03
1 10086U 25851KQ  26075.70043981  .00000000  00000+0  00000-0 0  9997
2 10086  60.0000 252.0000 0000000   0.0000  72.0000 13.98210060    12
CTC2_L_00265022-04
1 10087U 22239TG  26075.70043981  .00000000  00000+0  00000-0 0  9995
2 10087  60.0000 252.0000 0000000   0.0000 162.0000 13.98210060    13
CTC2_L_00265023-01
1 10088U 22923CQ  26075.70043981  .00000000  00000+0  00000-0 0  9996
2 10088  60.0000 264.0000 0000000   0.0000 264.0000 13.98210060    10
CTC2_L_00265023-02
1 10089U 25269MN  26075.70043981  .00000000  00000+0  00000-0 0  9993
2 10089  60.0000 264.0000 0000000   0.0000 354.0000 13.98210060    11
CTC2_L_00265023-03
1 10090U 25615JM  26075.70043981  .00000000  00000+0  00000-0 0  9990
2 10090  60.0000 264.0000 0000000   0.0000  84.0000 13.98210060    13
CTC2_L_00265023-04
1 10091U 25807BC  26075.70043981  .00000000  00000+0  00000-0 0  9994
2 10091  60.0000 264.0000 0000000   0.0000 174.0000 13.98210060    14
CTC2_L_00265024-01
1 10092U 23120LQ  26075.70043981  .00000000  00000+0  00000-0 0  9991
2 10092  60.0000 276.0000 0000000   0.0000 276.0000 13.98210060    11
CTC2_L_00265024-02
1 10093U 24437FK  26075.70043981  .00000000  00000+0  00000-0 0  9994
2 10093  60.0000 276.0000 0000000   0.0000   6.0000 13.98210060    13
CTC2_L_00265024-03
1 10094U 26850TJ  26075.70043981  .00000000  00000+0  00000-0 0  9996
2 10094  60.0000 276.0000 0000000   0.0000  96.0000 13.98210060    13
CTC2_L_00265024-04
1 10095U 22701TA  26075.70043981  .00000000  00000+0  00000-0 0  9998
2 10095  60.0000 276.0000 0000000   0.0000 186.0000 13.98210060    14
CTC2_L_00265025-01
1 10096U 23503XR  26075.70043981  .00000000  00000+0  00000-0 0  9990
2 10096  60.0000 288.0000 0000000   0.0000 288.0000 13.98210060    11
CTC2_L_00265025-02
1 10097U 24691F   26075.70043981  .00000000  00000+0  00000-0 0  9990
2 10097  60.0000 288.0000 0000000   0.0000  18.0000 13.98210060    13
CTC2_L_00265025-03
1 10098U 25123RH  26075.70043981  .00000000  00000+0  00000-0 0  9992
2 10098  60.0000 288.0000 0000000   0.0000 108.0000 13.98210060    14
CTC2_L_00265025-04
1 10099U 24281TV  26075.70043981  .00000000  00000+0  00000-0 0  9997
2 10099  60.0000 288.0000 0000000   0.0000 198.0000 13.98210060    14
CTC2_L_00265026-01
1 10100U 23244OY  26075.70043981  .00000000  00000+0  00000-0 0  9998
2 10100  60.0000 300.0000 0000000   0.0000 300.0000 13.98210060    17
CTC2_L_00265026-02
1 10101U 23201TN  26075.70043981  .00000000  00000+0  00000-0 0  9992
2 10101  60.0000 300.0000 0000000   0.0000  30.0000 13.98210060    18
CTC2_L_00265026-03
1 10102U 24601EJ  26075.70043981  .00000000  00000+0  00000-0 0  9998
2 10102  60.0000 300.0000 0000000   0.0000 120.0000 13.98210060    19
CTC2_L_00265026-04
1 10103U 25217UZ  26075.70043981  .00000000  00000+0  00000-0 0  9993
2 10103  60.0000 300.0000 0000000   0.0000 210.0000 13.98210060    10
CTC2_L_00265027-01
1 10104U 22668FK  26075.70043981  .00000000  00000+0  00000-0 0  9991
2 10104  60.0000 312.0000 0000000   0.0000 312.0000 13.98210060    17
CTC2_L_00265027-02
1 10105U 24681OV  26075.70043981  .00000000  00000+0  00000-0 0  9999
2 10105  60.0000 312.0000 0000000   0.0000  42.0000 13.98210060    18
CTC2_L_00265027-03
1 10106U 24688QU  26075.70043981  .00000000  00000+0  00000-0 0  9997
2 10106  60.0000 312.0000 0000000   0.0000 132.0000 13.98210060    19
CTC2_L_00265027-04
1 10107U 22640PU  26075.70043981  .00000000  00000+0  00000-0 0  9994
2 10107  60.0000 312.0000 0000000   0.0000 222.0000 13.98210060    10
CTC2_L_00265028-01
1 10108U 23019GW  26075.70043981  .00000000  00000+0  00000-0 0  9996
2 10108  60.0000 324.0000 0000000   0.0000 324.0000 13.98210060    17
CTC2_L_00265028-02
1 10109U 23805ME  26075.70043981  .00000000  00000+0  00000-0 0  9990
2 10109  60.0000 324.0000 0000000   0.0000  54.0000 13.98210060    18
CTC2_L_00265028-03
1 10110U 25867XU  26075.70043981  .00000000  00000+0  00000-0 0  9992
2 10110  60.0000 324.0000 0000000   0.0000 144.0000 13.98210060    10
CTC2_L_00265028-04
1 10111U 25726AM  26075.70043981  .00000000  00000+0  00000-0 0  9997
2 10111  60.0000 324.0000 0000000   0.0000 234.0000 13.98210060    11
CTC2_L_00265029-01
1 10112U 23628FB  26075.70043981  .00000000  00000+0  00000-0 0  9997
2 10112  60.0000 336.0000 0000000   0.0000 336.0000 13.98210060    18
CTC2_L_00265029-02
1 10113U 24211LL  26075.70043981  .00000000  00000+0  00000-0 0  9997
2 10113  60.0000 336.0000 0000000   0.0000  66.0000 13.98210060    19
CTC2_L_00265029-03
1 10114U 24997DF  26075.70043981  .00000000  00000+0  00000-0 0  9999
2 10114  60.0000 336.0000 0000000   0.0000 156.0000 13.98210060    10
CTC2_L_00265029-04
1 10115U 25311ET  26075.70043981  .00000000  00000+0  00000-0 0  9991
2 10115  60.0000 336.0000 0000000   0.0000 246.0000 13.98210060    11
CTC2_L_00265030-01
1 10116U 24477BO  26075.70043981  .00000000  00000+0  00000-0 0  9994
2 10116  60.0000 348.0000 0000000   0.0000 348.0000 13.98210060    18
CTC2_L_00265030-02
1 10117U 25248RQ  26075.70043981  .00000000  00000+0  00000-0 0  9992
2 10117  60.0000 348.0000 0000000   0.0000  78.0000 13.98210060    19
CTC2_L_00265030-03
1 10118U 22894YG  26075.70043981  .00000000  00000+0  00000-0 0  9997
2 10118  60.0000 348.0000 0000000   0.0000 168.0000 13.98210060    10
CTC2_L_00265030-04
1 10119U 25704FN  26075.70043981  .00000000  00000+0  00000-0 0  9991
2 10119  60.0000 348.0000 0000000   0.0000 258.0000 13.98210060    11
